GPS BIIA-10 (PRN 32)
1 20959U 90103A   24280.50000000 -.00000027  00000+0  00000+0 0  9998
2 20959  54.9480 187.6771 0115178 208.0806 151.3064  2.00564475123456
GPS BIIR-2  (PRN 13)
1 24876U 97035A   24280.50000000 -.00000027  00000+0  00000+0 0  9999
2 24876  55.4289 127.3456 0078456 189.2345 170.5678  2.00561234234567
